STARLINK-37443          
1 68824U 26089Y   26119.25003472 -.02188748  13771-2 -49829-2 0  9990
2 68824  97.2836 324.5593 0001809  74.6869  74.4675 15.97636764  2193
STARLINK-37015          
1 68825U 26089Z   26119.25003472 -.02182578  13720-2 -49286-2 0  9997
2 68825  97.2834 324.5593 0001720  81.1747  69.7489 15.97784859  2135
2026-090A               
1 68826U 26090A   26114.73803336  .00037958  00000+0  20267-3 0  9995
2 68826  96.6459  34.2833 0011850 244.0774 115.9275 15.80198214   220
2026-090B               
1 68827U 26090B   26114.67468931  .00037787  00000+0  20159-3 0  9997
2 68827  96.6473  34.2234 0011965 243.5513 116.4530 15.80215914   210
2026-090C               
1 68828U 26090C   26114.73795262  .00038137  00000+0  20274-3 0  9993
2 68828  96.6472  34.2814 0011834 242.5779 117.4288 15.80294056   228
2026-090D               
1 68829U 26090D   26114.73793650  .00031010  00000+0  16485-3 0  9995
2 68829  96.6466  34.2825 0012600 241.1997 118.8008 15.80312640   228
HULIANWANG JISHU SHIYAN*
1 68831U 26091A   26118.65906553  .00001656  00000+0  91997-4 0  9997
2 68831  54.9993 238.1031 0008482 291.2601  68.7512 15.19434621   676
HULIANWANG JISHU SHIYAN*
1 68832U 26091B   26118.65986281  .00001698  00000+0  94766-4 0  9997
2 68832  54.9997 238.1111 0008581 282.9875  77.0186 15.19121536   678
HULIANWANG JISHU SHIYAN*
1 68833U 26091C   26118.59258559  .00003349  00000+0  16969-3 0  9994
2 68833  54.9988 238.3859 0008877 297.0826  62.9288 15.19677359   665
HULIANWANG JISHU SHIYAN*
1 68834U 26091D   26118.72311870  .00001556  00000+0  85606-4 0  9999
2 68834  54.9992 237.8086 0009094 308.4257  51.5946 15.20161859   686
PRSC-E03                
1 68835U 26092A   26118.07999911  .00002925  00000+0  20185-3 0  9998
2 68835  38.0027  25.0972 0004773 334.4350  25.6175 15.06422626   392
PROGRESS-MS 34          
1 68837U 26093A   26119.16770407  .00006851  00000+0  13230-3 0  9994
2 68837  51.6320 182.7324 0007095   3.0267 357.0763 15.49015163   306
